IRNSS-1C                
1 40269U 14061A   26087.56117343 -.00000177  00000+0  00000+0 0  9990
2 40269   6.3109  90.4825 0020710 355.8396  24.6634  1.00274244 41889
INTELSAT 30 (IS-30)     
1 40271U 14062A   26087.59722693 -.00000170  00000+0  00000+0 0  9990
2 40271   0.0203  97.7386 0001116  35.2880 172.9268  1.00272022  5989
ARSAT 1                 
1 40272U 14062B   26087.81572278 -.00000279  00000+0  00000+0 0  9998
2 40272   0.0366 286.3158 0001694  64.4680  57.2823  1.00272348 41811
EUTELSAT 53A            
1 40277U 14064A   26086.98479954  .00000000  00000+0  00000+0 0  9990
2 40277   0.0232 191.6703 0001361 210.9150 190.3510  1.00270850 40753
GSAT-16                 
1 40332U 14078A   26087.76960767  .00000065  00000+0  00000+0 0  9992
2 40332   0.0462  85.1532 0005684 347.8157  85.3472  1.00273796 41300
DIRECTV 14              
1 40333U 14078B   26087.59636026  .00000000  00000+0  00000+0 0  9991
2 40333   0.0201 160.0555 0000397 341.4138 159.9958  1.00267748 41234
YAMAL 401               
1 40345U 14082A   26086.56426551 -.00000247  00000+0  00000+0 0  9999
2 40345   0.0038 157.9388 0000372  86.2381 233.8925  1.00270306 41107
ASTRA 2G                
1 40364U 14089A   26087.83553889  .00000000  00000+0  00000+0 0  9999
2 40364   0.0218   7.5322 0004733  28.6950 119.0095  1.00269090 41160
FENGYUN 2G              
1 40367U 14090A   26087.84969138 -.00000315  00000+0  00000+0 0  9993
2 40367   5.4364  73.7716 0001787 148.1043   9.7239  1.00263574 41192
MUOS-3                  
1 40374U 15002A   26087.75548096 -.00000144  00000+0  00000+0 0  9991
2 40374   4.3665  43.1118 0051912 183.0971 216.4874  1.00271888 40785
INMARSAT 5-F2           
1 40384U 15005A   26087.46255244  .00000000  00000+0  00000+0 0  9993
2 40384   0.0230 168.0005 0000748 177.8050 311.6167  1.00268706 40181
ABS-3A                  
1 40424U 15010A   26087.68675398 -.00000046  00000+0  00000+0 0  9995
2 40424   0.0106 130.3605 0001477 180.6232 119.3617  1.00270505 40565
EUTELSAT 115 WEST B     
1 40425U 15010B   26087.68225213 -.00000045  00000+0  00000+0 0  9992
2 40425   0.0211  36.3497 0000160  42.4786 237.9797  1.00271912 40585
EXPRESS-AM7             
1 40505U 15012A   26087.83787890  .00000131  00000+0  00000+0 0  9999
2 40505   0.0188 111.9953 0003016 239.6999 176.1656  1.00273034 40207
BEIDOU-3S IGSO-1S       
1 40549U 15019A   26082.29086919 -.00000163  00000+0  00000+0 0  9999
2 40549  49.3559 296.4949 0036261 190.1236 255.1180  1.00268843 40213
THOR 7                  
1 40613U 15022A   26087.61594701 -.00000028  00000+0  00000+0 0  9999
2 40613   0.0130 191.6297 0002601 173.1423  42.3476  1.00273117 40007
TURKMENALEM52E/MONACOSAT
1 40617U 15023A   26087.83656139  .00000084  00000+0  00000+0 0  9993
2 40617   0.0397  88.5255 0003024 279.9782 170.9037  1.00272864 40040
